NORAD_CAT_ID,OBJECT_NAME,OBJECT_TYPE,EPOCH,MEAN_MOTION,ECCENTRICITY,INCLINATION,RA_OF_ASC_NODE,ARG_OF_PERICENTER,MEAN_ANOMALY,BSTAR,MEAN_MOTION_DOT,MEAN_MOTION_DDOT,TLE_LINE0,TLE_LINE1,TLE_LINE2,SEMIMAJOR_AXIS,PERIOD,APOGEE,PERIGEE,DECAYED
52668.0,STARLINK-4067,PAYLOAD,2024-02-08 18:13:29,15.08841525,0.0001217,53.2183,325.583,104.5768,255.5359,-6.4103e-05,-1.308e-05,0.0,0 STARLINK-4067,1 52668U 22053N   24039.75936931 -.00001308  00000-0 -64103-4 0  9992,2 52668  53.2183 325.5830 0001217 104.5768 255.5359 15.08841525 96322,6917.876,95.437,540.583,538.899,0.0
52668.0,STARLINK-4067,PAYLOAD,2024-02-09 03:45:48,15.08844458,0.0001378,53.219,323.7973,89.5197,270.5953,-5.17e-06,-3.7e-06,0.0,0 STARLINK-4067,1 52668U 22053N   24040.15680634 -.00000370  00000-0 -51700-5 0  9992,2 52668  53.2190 323.7973 0001378  89.5197 270.5953 15.08844458 96385,6917.867,95.437,540.685,538.778,0.0
52668.0,STARLINK-4067,PAYLOAD,2024-02-09 18:04:17,15.08825583,0.0001405,53.22,321.1246,83.8438,276.2714,0.00010909,1.448e-05,0.0,0 STARLINK-4067,1 52668U 22053N   24040.75297834  .00001448  00000-0  10909-3 0  9993,2 52668  53.2200 321.1246 0001405  83.8438 276.2714 15.08825583 96474,6917.924,95.438,540.761,538.817,0.0
52668.0,STARLINK-4067,PAYLOAD,2024-02-10 03:36:35,15.08838271,0.0001483,53.219,319.3377,94.5182,265.598,4.771e-05,4.71e-06,0.0,0 STARLINK-4067,1 52668U 22053N   24041.15041414  .00000471  00000-0  47710-4 0  9995,2 52668  53.2190 319.3377 0001483  94.5182 265.5980 15.08838271 96538,6917.886,95.438,540.777,538.725,0.0
52668.0,STARLINK-4067,PAYLOAD,2024-02-10 22:41:12,15.08845815,0.0001382,53.2184,315.768,92.3587,267.7563,0.00010883,1.445e-05,0.0,0 STARLINK-4067,1 52668U 22053N   24041.94528870  .00001445  00000-0  10883-3 0  9990,2 52668  53.2184 315.7680 0001382  92.3587 267.7563 15.08845815 96657,6917.863,95.437,540.684,538.772,0.0
52668.0,STARLINK-4067,PAYLOAD,2024-02-11 03:27:21,15.08861822,0.0001326,53.2187,314.8743,83.4649,276.6494,0.00020207,2.931e-05,0.0,0 STARLINK-4067,1 52668U 22053N   24042.14399572  .00002931  00000-0  20207-3 0  9990,2 52668  53.2187 314.8743 0001326  83.4649 276.6494 15.08861822 96689,6917.814,95.436,540.596,538.761,0.0
52668.0,STARLINK-4067,PAYLOAD,2024-02-11 17:45:50,15.08839943,9.42e-05,53.2182,312.198,102.8795,257.2303,3.1668e-05,2.16e-06,0.0,0 STARLINK-4067,1 52668U 22053N   24042.74017272  .00000216  00000-0  31668-4 0  9998,2 52668  53.2182 312.1980 0000942 102.8795 257.2303 15.08839943 96772,6917.881,95.438,540.397,539.094,0.0
52668.0,STARLINK-4067,PAYLOAD,2024-02-11 22:31:59,15.08851478,0.0001412,53.2178,311.3065,106.4999,253.6149,0.00014077,1.954e-05,0.0,0 STARLINK-4067,1 52668U 22053N   24042.93888163  .00001954  00000-0  14077-3 0  9998,2 52668  53.2178 311.3065 0001412 106.4999 253.6149 15.08851478 96800,6917.845,95.437,540.687,538.734,0.0
52668.0,STARLINK-4067,PAYLOAD,2024-02-12 03:18:08,15.08858126,0.0001489,53.2175,310.4134,120.2149,239.899,0.00018205,2.612e-05,0.0,0 STARLINK-4067,1 52668U 22053N   24043.13759449  .00002612  00000-0  18205-3 0  9994,2 52668  53.2175 310.4134 0001489 120.2149 239.8990 15.08858126 96839,6917.825,95.436,540.72,538.66,0.0
52668.0,STARLINK-4067,PAYLOAD,2024-02-12 17:36:38,15.08842242,0.0001244,53.2182,307.74,89.4492,270.6643,-0.00016207,-2.866e-05,0.0,0 STARLINK-4067,1 52668U 22053N   24043.73377676 -.00002866  00000-0 -16207-3 0  9991,2 52668  53.2182 307.7400 0001244  89.4492 270.6643 15.08842242 96928,6917.874,95.437,540.599,538.878,0.0
52668.0,STARLINK-4067,PAYLOAD,2024-02-12 22:22:47,15.08843644,0.0001648,53.2186,306.8479,89.6543,270.4638,-0.00014018,-2.519e-05,0.0,0 STARLINK-4067,1 52668U 22053N   24043.93249451 -.00002519  00000-0 -14018-3 0  9995,2 52668  53.2186 306.8479 0001648  89.6543 270.4638 15.08843644 96957,6917.869,95.437,540.874,538.594,0.0
52668.0,STARLINK-4067,PAYLOAD,2024-02-13 03:08:56,15.08846741,0.0001456,53.2181,305.9538,95.2828,264.8331,-9.6699e-05,-1.827e-05,0.0,0 STARLINK-4067,1 52668U 22053N   24044.13121005 -.00001827  00000-0 -96699-4 0  9999,2 52668  53.2181 305.9538 0001456  95.2828 264.8331 15.08846741 96985,6917.86,95.437,540.732,538.718,0.0
52668.0,STARLINK-4067,PAYLOAD,2024-02-13 22:13:34,15.08841663,0.0001558,53.2167,302.3854,103.4216,256.695,9.0854e-06,-1.43e-06,0.0,0 STARLINK-4067,1 52668U 22053N   24044.92609238 -.00000143  00000-0  90854-5 0  9992,2 52668  53.2167 302.3854 0001558 103.4216 256.6950 15.08841663 97106,6917.875,95.437,540.818,538.663,0.0
52668.0,STARLINK-4067,PAYLOAD,2024-02-14 02:59:43,15.08848855,0.0001386,53.2169,301.4924,94.9965,265.1186,0.00013142,1.805e-05,0.0,0 STARLINK-4067,1 52668U 22053N   24045.12480781  .00001805  00000-0  13142-3 0  9993,2 52668  53.2169 301.4924 0001386  94.9965 265.1186 15.08848855 97139,6917.853,95.437,540.677,538.76,0.0
52668.0,STARLINK-4067,PAYLOAD,2024-02-14 17:18:12,15.08835619,0.0001054,53.2168,298.817,92.9499,267.1614,0.00010764,1.426e-05,0.0,0 STARLINK-4067,1 52668U 22053N   24045.72097657  .00001426  00000-0  10764-3 0  9991,2 52668  53.2168 298.8170 0001054  92.9499 267.1614 15.08835619 97224,6917.894,95.438,540.488,539.03,0.0
52668.0,STARLINK-4067,PAYLOAD,2024-02-14 22:04:21,15.08843084,0.0001221,53.2157,297.9225,100.7576,259.3553,0.00015756,2.221e-05,0.0,0 STARLINK-4067,1 52668U 22053N   24045.91969197  .00002221  00000-0  15756-3 0  9999,2 52668  53.2157 297.9225 0001221 100.7576 259.3553 15.08843084 97256,6917.871,95.437,540.581,538.891,0.0
52668.0,STARLINK-4067,PAYLOAD,2024-02-14 23:39:44,15.08843722,0.0001206,53.2161,297.628,84.7656,275.3473,0.00019781,2.862e-05,0.0,0 STARLINK-4067,1 52668U 22053N   24045.98593226  .00002862  00000-0  19781-3 0  9995,2 52668  53.2161 297.6280 0001206  84.7656 275.3473 15.08843722 97261,6917.869,95.437,540.568,538.9,0.0
52668.0,STARLINK-4067,PAYLOAD,2024-02-15 17:08:59,15.08835727,0.0001418,53.2162,294.3594,85.8896,274.2258,-9.6103e-05,-1.817e-05,0.0,0 STARLINK-4067,1 52668U 22053N   24046.71458096 -.00001817  00000-0 -96103-4 0  9997,2 52668  53.2162 294.3594 0001418  85.8896 274.2258 15.08835727 97374,6917.893,95.438,540.739,538.777,0.0
52668.0,STARLINK-4067,PAYLOAD,2024-02-15 21:55:09,15.08835207,0.0001364,53.2158,293.4657,95.4621,264.6526,-0.00010118,-1.898e-05,0.0,0 STARLINK-4067,1 52668U 22053N   24046.91329929 -.00001898  00000-0 -10118-3 0  9991,2 52668  53.2158 293.4657 0001364  95.4621 264.6526 15.08835207 97400,6917.895,95.438,540.704,538.816,0.0
52668.0,STARLINK-4067,PAYLOAD,2024-02-16 09:02:50,15.08838978,0.0001429,53.2165,291.3855,91.615,268.5006,-3.56e-05,-8.54e-06,0.0,0 STARLINK-4067,1 52668U 22053N   24047.37697893 -.00000854  00000-0 -35600-4 0  9995,2 52668  53.2165 291.3855 0001429  91.6150 268.5006 15.08838978 97473,6917.884,95.438,540.737,538.76,0.0
52668.0,STARLINK-4067,PAYLOAD,2024-02-16 20:10:33,15.08836423,0.0001475,53.2169,289.3046,104.6279,255.4877,-7.3446e-06,-4.05e-06,0.0,0 STARLINK-4067,1 52668U 22053N   24047.84066247 -.00000405  00000-0 -73446-5 0  9993,2 52668  53.2169 289.3046 0001475 104.6279 255.4877 15.08836423 97546,6917.891,95.438,540.777,538.736,0.0
52668.0,STARLINK-4067,PAYLOAD,2024-02-16 21:45:56,15.08837116,0.0001524,53.2168,289.0073,105.9701,254.1459,9.6203e-06,-1.35e-06,0.0,0 STARLINK-4067,1 52668U 22053N   24047.90690256 -.00000135  00000-0  96203-5 0  9998,2 52668  53.2168 289.0073 0001524 105.9701 254.1459 15.08837116 97554,6917.889,95.438,540.808,538.7,0.0
52668.0,STARLINK-4067,PAYLOAD,2024-02-17 08:53:38,15.08843568,0.0001512,53.217,286.9259,96.292,263.8244,0.00011804,1.591e-05,0.0,0 STARLINK-4067,1 52668U 22053N   24048.37057964  .00001591  00000-0  11804-3 0  9991,2 52668  53.2170 286.9259 0001512  96.2920 263.8244 15.08843568 97626,6917.869,95.437,540.78,538.689,0.0
52668.0,STARLINK-4067,PAYLOAD,2024-02-17 21:36:43,15.08842161,0.0001638,53.2171,284.5471,100.2672,259.8505,0.00021123,3.075e-05,0.0,0 STARLINK-4067,1 52668U 22053N   24048.90050332  .00003075  00000-0  21123-3 0  9996,2 52668  53.2171 284.5471 0001638 100.2672 259.8505 15.08842161 97708,6917.874,95.437,540.872,538.606,0.0
52668.0,STARLINK-4067,PAYLOAD,2024-02-18 00:47:29,15.08844523,0.0001462,53.2163,283.9509,96.6516,263.4642,0.00021023,3.06e-05,0.0,0 STARLINK-4067,1 52668U 22053N   24049.03298155  .00003060  00000-0  21023-3 0  9991,2 52668  53.2163 283.9509 0001462  96.6516 263.4642 15.08844523 97723,6917.867,95.437,540.743,538.72,0.0
52668.0,STARLINK-4067,PAYLOAD,2024-02-18 08:44:25,15.0884562,0.0001446,53.2163,282.4631,92.2524,267.8633,0.00017814,2.549e-05,0.0,0 STARLINK-4067,1 52668U 22053N   24049.36418076  .00002549  00000-0  17814-3 0  9997,2 52668  53.2163 282.4631 0001446  92.2524 267.8633 15.08845620 97778,6917.863,95.437,540.729,538.728,0.0
52668.0,STARLINK-4067,PAYLOAD,2024-02-18 19:52:07,15.08839829,0.0001498,53.2167,280.3811,93.4798,266.6365,0.00037983,5.762e-05,0.0,0 STARLINK-4067,1 52668U 22053N   24049.82786395  .00005762  00000-0  37983-3 0  9999,2 52668  53.2167 280.3811 0001498  93.4798 266.6365 15.08839829 97843,6917.881,95.438,540.782,538.71,0.0
52668.0,STARLINK-4067,PAYLOAD,2024-02-18 23:02:53,15.08850344,0.0001268,53.2154,279.7877,86.0371,274.0767,0.00017118,2.438e-05,0.0,0 STARLINK-4067,1 52668U 22053N   24049.96033634  .00002438  00000-0  17118-3 0  9990,2 52668  53.2154 279.7877 0001268  86.0371 274.0767 15.08850344 97869,6917.849,95.437,540.591,538.837,0.0
52668.0,STARLINK-4067,PAYLOAD,2024-02-19 00:38:16,15.08850898,0.0001283,53.2154,279.4894,86.645,273.4689,0.00027751,4.133e-05,0.0,0 STARLINK-4067,1 52668U 22053N   24050.02657577  .00004133  00000-0  27751-3 0  9995,2 52668  53.2154 279.4894 0001283  86.6450 273.4689 15.08850898 97877,6917.847,95.437,540.6,538.825,0.0
52668.0,STARLINK-4067,PAYLOAD,2024-02-19 08:35:12,15.08842082,0.0001543,53.217,278.0034,83.3145,276.8023,3.2245e-05,2.25e-06,0.0,0 STARLINK-4067,1 52668U 22053N   24050.35778084  .00000225  00000-0  32245-4 0  9991,2 52668  53.2170 278.0034 0001543  83.3145 276.8023 15.08842082 97921,6917.874,95.437,540.806,538.672,0.0
